[{"OBJECT_NAME":"STARLINK-1645","OBJECT_ID":"2021-012C","EPOCH":"2026-03-09T22:00:01.999584","MEAN_MOTION":15.81625444,"ECCENTRICITY":0.00097927,"INCLINATION":53.0423,"RA_OF_ASC_NODE":22.5258,"ARG_OF_PERICENTER":78.75,"MEAN_ANOMALY":175.006,"EPHEMERIS_TYPE":0,"CLASSIFICATION_TYPE":"U","NORAD_CAT_ID":47622,"ELEMENT_SET_NO":999,"REV_AT_EPOCH":585,"BSTAR":0.0011756393,"MEAN_MOTION_DOT":0.0024723,"MEAN_MOTION_DDOT":0},{"OBJECT_NAME":"STARLINK-36385","OBJECT_ID":"2026-025AA","EPOCH":"2026-03-09T21:32:38.802048","MEAN_MOTION":15.80864056,"ECCENTRICITY":0.00012238,"INCLINATION":97.2851,"RA_OF_ASC_NODE":180.6517,"ARG_OF_PERICENTER":99.3316,"MEAN_ANOMALY":260.8091,"EPHEMERIS_TYPE":0,"CLASSIFICATION_TYPE":"U","NORAD_CAT_ID":67717,"ELEMENT_SET_NO":999,"REV_AT_EPOCH":598,"BSTAR":0.0017633183,"MEAN_MOTION_DOT":0.00352403,"MEAN_MOTION_DDOT":0}]
